[{"OBJECT_NAME":"STARLINK-5196","OBJECT_ID":"2023-010BC","EPOCH":"2026-03-09T21:24:37.510848","MEAN_MOTION":14.98330027,"ECCENTRICITY":0.00027796,"INCLINATION":70.0009,"RA_OF_ASC_NODE":3.9051,"ARG_OF_PERICENTER":267.8181,"MEAN_ANOMALY":92.266,"EPHEMERIS_TYPE":0,"CLASSIFICATION_TYPE":"U","NORAD_CAT_ID":55319,"ELEMENT_SET_NO":999,"REV_AT_EPOCH":17467,"BSTAR":-3.2041794e-5,"MEAN_MOTION_DOT":-4.75e-6,"MEAN_MOTION_DDOT":0},{"OBJECT_NAME":"CZ-6A DEB","OBJECT_ID":"2022-151XN","EPOCH":"2026-03-09T03:53:00.747744","MEAN_MOTION":14.96908336,"ECCENTRICITY":0.00415985,"INCLINATION":98.5971,"RA_OF_ASC_NODE":139.8978,"ARG_OF_PERICENTER":176.4411,"MEAN_ANOMALY":183.7112,"EPHEMERIS_TYPE":0,"CLASSIFICATION_TYPE":"U","NORAD_CAT_ID":55516,"ELEMENT_SET_NO":999,"REV_AT_EPOCH":17147,"BSTAR":0.005138713,"MEAN_MOTION_DOT":0.00060444,"MEAN_MOTION_DDOT":0}]
